OBJECT_NAME,OBJECT_ID,EPOCH,MEAN_MOTION,ECCENTRICITY,INCLINATION,RA_OF_ASC_NODE,ARG_OF_PERICENTER,MEAN_ANOMALY,EPHEMERIS_TYPE,CLASSIFICATION_TYPE,NORAD_CAT_ID,ELEMENT_SET_NO,REV_AT_EPOCH,BSTAR,MEAN_MOTION_DOT,MEAN_MOTION_DDOT
STARLINK-37549,2026-122Y,2026-07-11T00:00:02.000160,15.33409272,.0000708,97.2849,221.7101,69.5902,30.9036,0,U,69351,999,586,.20784E-2,.67549E-3,0
STARLINK-37778,2026-122Z,2026-07-11T01:03:53.536896,15.33442908,.0001801,97.2856,221.7591,109.6329,250.5108,0,U,69352,999,585,.42352E-3,.13622E-3,0
STARLINK-37651,2026-123A,2026-07-11T03:59:21.621408,15.69386187,.0030529,53.1623,122.0278,97.7153,262.7333,0,U,69353,999,582,-.5004E-1,-.5073269E-1,0
STARLINK-37652,2026-123B,2026-07-11T04:43:10.452864,15.80972015,.0001424,53.1565,121.4925,56.4466,303.6692,0,U,69354,999,583,.13165E-2,.268594E-2,0
STARLINK-37593,2026-123C,2026-07-10T23:05:14.678016,15.75292031,.0000742,53.1588,122.8835,119.5898,240.5196,0,U,69355,999,579,.89987E-3,.139927E-2,0
STARLINK-37597,2026-123D,2026-07-11T07:41:20.304096,15.75481014,.000113,53.1595,121.5801,163.3918,196.7140,0,U,69356,999,584,.16169E-2,.257618E-2,0
STARLINK-37598,2026-123E,2026-07-09T21:31:41.903328,15.75281234,.00013171,53.1597,128.3330,95.0626,265.0544,0,U,69357,999,562,.13916718E-2,.218695E-2,0
STARLINK-37602,2026-123F,2026-07-11T05:17:22.025184,15.75236901,.0000884,53.1577,122.3897,92.0943,268.0178,0,U,69358,999,582,.11267E-2,.175683E-2,0
STARLINK-37600,2026-123G,2026-07-11T06:42:39.477312,15.75241696,.000109,53.1559,122.0429,103.6392,256.4750,0,U,69359,999,583,.91833E-3,.142542E-2,0
STARLINK-37599,2026-123H,2026-07-11T12:00:02.000160,15.75288364,.0001188,53.1590,119.8390,96.3829,255.1027,0,U,69360,999,593,-.84536E-3,-.12855E-2,0
STARLINK-37039,2026-123J,2026-07-11T04:38:09.373056,15.75272082,.0001477,53.1594,122.2082,72.9050,287.2132,0,U,69361,999,582,.82867E-3,.128518E-2,0
STARLINK-37040,2026-123K,2026-07-11T04:31:28.707744,15.75364791,.0001589,53.1599,121.4356,69.6232,290.4959,0,U,69362,999,583,.11211E-2,.175789E-2,0
STARLINK-37582,2026-123L,2026-07-11T04:58:13.672416,15.75378904,.0000942,53.1563,122.2957,77.6964,282.4161,0,U,69363,999,582,.12825E-2,.201954E-2,0
STARLINK-37309,2026-123M,2026-07-11T05:17:41.472960,15.75560595,.0001239,53.1588,121.6490,191.5462,168.5530,0,U,69364,999,583,.17918E-2,.287572E-2,0
STARLINK-37436,2026-123N,2026-07-11T12:00:02.000160,15.75301405,.0001067,53.1579,119.7845,108.0067,269.2280,0,U,69365,999,605,-.94284E-3,-.143135E-2,0
STARLINK-37581,2026-123P,2026-07-11T05:37:09.998400,15.75315678,.0004609,53.1584,121.0123,6.0239,354.0836,0,U,69366,999,584,.10535E-2,.164646E-2,0
STARLINK-37683,2026-123Q,2026-07-11T02:40:38.561088,15.75285702,.0000367,53.1550,122.3980,228.1419,131.9569,0,U,69367,999,581,.10475E-2,.163401E-2,0
STARLINK-37687,2026-123R,2026-07-11T05:06:24.569568,15.80909234,.0001481,53.1566,120.8554,119.0535,241.0636,0,U,69368,999,584,.97192E-3,.195868E-2,0
STARLINK-37631,2026-123S,2026-07-11T04:51:33.108192,15.75480098,.0001437,53.1586,121.5296,6.8050,353.2990,0,U,69369,999,583,.17812E-2,.284768E-2,0
STARLINK-37673,2026-123T,2026-07-11T00:00:02.000160,15.75313920,.0001204,53.1590,122.7993,87.8921,74.7689,0,U,69370,999,610,-.11988E-2,-.181117E-2,0
STARLINK-37645,2026-123U,2026-07-11T05:04:37.877664,15.75457808,.0002161,53.1565,121.5862,52.9028,307.2190,0,U,69371,999,583,.17033E-2,.271597E-2,0
STARLINK-37688,2026-123V,2026-07-10T19:36:22.566240,15.75267944,.0001175,53.1596,123.3872,100.5750,259.5402,0,U,69372,999,577,.88107E-3,.136794E-2,0
STARLINK-37685,2026-123W,2026-07-11T03:34:09.076224,15.81135098,.0001167,53.1565,121.1635,224.8688,135.2240,0,U,69373,999,583,.14798E-2,.305605E-2,0
STARLINK-37632,2026-123X,2026-07-11T05:04:07.624704,15.80885928,.000117,53.1568,120.8448,75.7713,284.3439,0,U,69374,999,584,.11515E-2,.232935E-2,0
STARLINK-37454,2026-123Y,2026-07-11T04:12:20.193408,15.75258393,.0001341,53.1574,121.3436,70.8023,289.3142,0,U,69375,999,583,.10664E-2,.166214E-2,0
STARLINK-37485,2026-123Z,2026-07-11T04:57:37.100160,15.75233394,.0000766,53.1556,121.5529,105.2463,254.8642,0,U,69376,999,583,.91056E-3,.141257E-2,0
STARLINK-37439,2026-123AA,2026-07-11T12:00:02.000160,15.75299390,.0001177,53.1600,119.4060,118.2480,81.0960,0,U,69377,999,595,-.92197E-3,-.140022E-2,0
STARLINK-37376,2026-123AB,2026-07-11T02:21:02.257056,15.75271356,.0001236,53.1596,122.3058,42.3828,317.7287,0,U,69378,999,581,.14632E-2,.230182E-2,0
STARLINK-37383,2026-123AC,2026-07-11T04:31:56.583840,15.75225954,.0001285,53.1597,121.4311,93.0127,267.1040,0,U,69379,999,583,.13855E-2,.217161E-2,0
STARLINK-37411,2026-123AD,2026-07-11T04:53:11.228352,15.80882624,.0001087,53.1558,120.7873,73.7225,286.3917,0,U,69380,999,584,.10396E-2,.209633E-2,0
STARLINK-37427,2026-123AE,2026-07-11T04:47:16.730880,15.80905524,.0001254,53.1575,120.7610,98.7251,261.3914,0,U,69381,999,584,.50747E-3,.100788E-2,0
QIANFAN-165,2026-124A,2026-07-10T20:09:14.820768,13.96914001,.0010318,88.9985,359.3810,80.6785,279.5559,0,U,69382,999,515,-.15669E+1,-.2027664E-1,0
QIANFAN-166,2026-124B,2026-07-10T21:13:22.844352,13.99067046,.0005062,88.9979,359.3671,61.0080,299.1605,0,U,69383,999,516,-.15599E+1,-.2091008E-1,0
QIANFAN-167,2026-124C,2026-07-10T19:56:45.021696,13.96471570,.0010776,88.9991,359.3800,78.4794,281.7592,0,U,69384,999,515,-.16201E+1,-.2076769E-1,0
QIANFAN-168,2026-124D,2026-07-10T21:00:06.750432,13.97809593,.0009502,88.9985,359.3676,95.7624,264.4637,0,U,69385,999,516,-.14974E+1,-.1972285E-1,0
QIANFAN-169,2026-124E,2026-07-11T01:52:30.156384,14.02024364,.0006936,88.9992,359.3418,83.5162,276.6808,0,U,69386,999,519,-.24841E-5,.1E-6,0
QIANFAN-170,2026-124F,2026-07-10T20:16:27.566400,14.00663107,.0003456,88.9988,359.3633,66.3704,293.7838,0,U,69387,999,516,-.14694E+1,-.203047E-1,0
QIANFAN-171,2026-124G,2026-07-10T19:54:18.311904,14.00429902,.0004052,88.9987,359.3606,147.3135,212.8296,0,U,69388,999,516,-.13638E+1,-.1886505E-1,0
QIANFAN-172,2026-124H,2026-07-10T20:00:25.733952,14.01177148,.0002681,88.9989,359.3620,185.6859,174.4290,0,U,69389,999,516,-.14346E+1,-.2002416E-1,0
QIANFAN-173,2026-124J,2026-07-10T19:40:18.909120,14.03154793,.0006421,88.9989,359.3604,163.2801,196.8593,0,U,69390,999,516,-.15396E+1,-.2209565E-1,0
QIANFAN-174,2026-124K,2026-07-10T20:59:15.472896,14.04122309,.0002949,88.9983,359.3489,9.3427,350.7809,0,U,69391,999,516,-.13837E+1,-.203326E-1,0
QIANFAN-175,2026-124L,2026-07-10T20:57:00.815040,14.02375695,.0003424,88.9993,359.3490,46.5570,313.5895,0,U,69392,999,517,-.14402E+1,-.2050027E-1,0
QIANFAN-176,2026-124M,2026-07-10T20:52:17.252832,14.01670366,.0002056,88.9982,359.3474,55.2793,304.8580,0,U,69393,999,516,-.14412E+1,-.2027454E-1,0
QIANFAN-177,2026-124N,2026-07-10T22:04:13.845216,14.02994754,.0001344,88.9985,359.3369,96.1296,264.0038,0,U,69394,999,518,-.13654E+1,-.1970746E-1,0
QIANFAN-178,2026-124P,2026-07-10T22:06:21.388032,14.04100429,.0002208,88.9981,359.3370,130.7975,229.3398,0,U,69395,999,518,-.1335E+1,-.1965678E-1,0
QIANFAN-179,2026-124Q,2026-07-10T21:44:42.923040,14.05136706,.0005885,88.9989,359.3352,167.9589,192.1734,0,U,69396,999,518,-.13278E+1,-.1990179E-1,0
QIANFAN-180,2026-124R,2026-07-10T23:24:18.817056,14.03377414,.000403,88.9987,359.3274,195.8033,164.3023,0,U,69397,999,519,-.13583E+1,-.1973779E-1,0
QIANFAN-181,2026-124S,2026-07-10T23:28:47.909856,13.95314354,.0010282,88.9987,359.3645,58.7422,301.4760,0,U,69398,999,517,-.16546E+1,-.2078372E-1,0
QIANFAN-182,2026-124T,2026-07-10T22:23:46.295808,13.97601621,.0009641,88.9985,359.3577,69.9856,290.2359,0,U,69399,999,516,-.15301E+1,-.200557E-1,0
QIANFAN-183,2026-125A,2026-07-10T23:20:29.156352,14.01194752,.0015146,88.9943,277.7673,117.1845,243.0880,0,U,69401,999,506,-.14773E+1,-.2060403E-1,0
QIANFAN-184,2026-125B,2026-07-10T23:01:21.029952,14.00818015,.0015509,88.9944,277.7654,99.2233,261.0702,0,U,69402,999,506,-.14534E+1,-.2016859E-1,0
QIANFAN-185,2026-125C,2026-07-11T13:01:56.159904,14.05242777,.0018592,88.9950,277.7035,93.0334,267.2976,0,U,69403,999,514,-.10603E-5,.12E-6,0
QIANFAN-186,2026-125D,2026-07-10T21:01:19.029216,14.01317159,.0015555,88.9953,277.7715,111.5125,248.7715,0,U,69404,999,505,-.15089E+1,-.2105618E-1,0
QIANFAN-187,2026-125E,2026-07-10T23:59:02.338368,14.01421819,.0015477,88.9946,277.7520,104.4159,255.8740,0,U,69405,999,507,-.14217E+1,-.199568E-1,0
QIANFAN-188,2026-125F,2026-07-10T20:00:49.445568,14.02759102,.0012913,88.9942,277.7647,98.4415,261.8229,0,U,69406,999,505,-.11849E+1,-.1702247E-1,0
QIANFAN-189,2026-125G,2026-07-10T20:18:16.301664,14.03072580,.0011513,88.9940,277.7658,107.6743,252.5696,0,U,69407,999,504,-.14207E+1,-.2048723E-1,0
QIANFAN-190,2026-125H,2026-07-10T20:08:23.962272,14.02221989,.001236,88.9940,277.7680,101.6335,258.6233,0,U,69408,999,505,-.14184E+1,-.2017171E-1,0
QIANFAN-191,2026-125J,2026-07-10T23:08:55.752288,14.03135274,.0014435,88.9941,277.7488,116.0535,244.2134,0,U,69409,999,507,-.13901E+1,-.201035E-1,0
QIANFAN-192,2026-125K,2026-07-10T21:11:36.150720,14.04555912,.0016616,88.9946,277.7539,108.4683,251.8306,0,U,69410,999,506,-.14052E+1,-.2079892E-1,0
QIANFAN-193,2026-125L,2026-07-10T21:00:51.568704,14.03404014,.0014347,88.9939,277.7523,112.7379,247.5320,0,U,69411,999,506,-.13786E+1,-.2003798E-1,0
QIANFAN-194,2026-125M,2026-07-10T20:54:21.605760,14.02391002,.0014026,88.9947,277.7506,115.8323,244.4305,0,U,69412,999,505,-.14105E+1,-.2012687E-1,0
QIANFAN-195,2026-125N,2026-07-10T17:05:28.438080,14.06504924,.0017334,88.9947,277.7656,103.6335,256.6779,0,U,69413,999,504,-.12906E+1,-.1985461E-1,0
QIANFAN-196,2026-125P,2026-07-10T23:49:45.512832,14.04611524,.0015842,88.9943,277.7329,110.1143,250.1744,0,U,69414,999,508,-.1342E+1,-.1994229E-1,0
QIANFAN-197,2026-125Q,2026-07-10T21:57:19.420704,14.04976914,.0012964,88.9942,277.7400,101.2032,259.0608,0,U,69415,999,506,-.13327E+1,-.1992827E-1,0
QIANFAN-198,2026-125R,2026-07-10T22:12:08.659872,14.05863694,.0016253,88.9939,277.7408,101.0014,259.2998,0,U,69416,999,507,-.13523E+1,-.2051172E-1,0
